{
    "countries": [
        {
            "code": "AD",
            "emoji": "ðŸ‡¦ðŸ‡©",
            "unicode": "U+1F1E6 U+1F1E9",
            "name": "Andorra",
            "title": "flag for Andorra",
            "dialCode": "+376"
        },
        {
            "code": "AL",
            "emoji": "ðŸ‡¦ðŸ‡±",
            "unicode": "U+1F1E6 U+1F1F1",
            "name": "Albania",
            "title": "flag for Albania",
            "dialCode": "+355"
        },
        {
            "code": "AT",
            "emoji": "ðŸ‡¦ðŸ‡¹",
            "unicode": "U+1F1E6 U+1F1F9",
            "name": "Austria",
            "title": "flag for Austria",
            "dialCode": "+43"
        },
        {
            "code": "AX",
            "emoji": "ðŸ‡¦ðŸ‡½",
            "unicode": "U+1F1E6 U+1F1FD",
            "name": "Ã…land Islands",
            "title": "flag for Ã…land Islands",
            "dialCode": ""
        },
        {
            "code": "BA",
            "emoji": "ðŸ‡§ðŸ‡¦",
            "unicode": "U+1F1E7 U+1F1E6",
            "name": "Bosnia and Herzegovina",
            "title": "flag for Bosnia and Herzegovina",
            "dialCode": "+387"
        },
        {
            "code": "BE",
            "emoji": "ðŸ‡§ðŸ‡ª",
            "unicode": "U+1F1E7 U+1F1EA",
            "name": "Belgium",
            "title": "flag for Belgium",
            "dialCode": "+32"
        },
        {
            "code": "BG",
            "emoji": "ðŸ‡§ðŸ‡¬",
            "unicode": "U+1F1E7 U+1F1EC",
            "name": "Bulgaria",
            "title": "flag for Bulgaria",
            "dialCode": "+359"
        },
        {
            "code": "BY",
            "emoji": "ðŸ‡§ðŸ‡¾",
            "unicode": "U+1F1E7 U+1F1FE",
            "name": "Belarus",
            "title": "flag for Belarus",
            "dialCode": "+375"
        },
        {
            "code": "CH",
            "emoji": "ðŸ‡¨ðŸ‡­",
            "unicode": "U+1F1E8 U+1F1ED",
            "name": "Switzerland",
            "title": "flag for Switzerland",
            "dialCode": "+41"
        },
        {
            "code": "CY",
            "emoji": "ðŸ‡¨ðŸ‡¾",
            "unicode": "U+1F1E8 U+1F1FE",
            "name": "Cyprus",
            "title": "flag for Cyprus",
            "dialCode": "+537"
        },
        {
            "code": "CZ",
            "emoji": "ðŸ‡¨ðŸ‡¿",
            "unicode": "U+1F1E8 U+1F1FF",
            "name": "Czech Republic",
            "title": "flag for Czech Republic",
            "dialCode": "+420"
        },
        {
            "code": "DE",
            "emoji": "ðŸ‡©ðŸ‡ª",
            "unicode": "U+1F1E9 U+1F1EA",
            "name": "Germany",
            "title": "flag for Germany",
            "dialCode": "+49"
        },
        {
            "code": "DK",
            "emoji": "ðŸ‡©ðŸ‡°",
            "unicode": "U+1F1E9 U+1F1F0",
            "name": "Denmark",
            "title": "flag for Denmark",
            "dialCode": "+45"
        },
        {
            "code": "EE",
            "emoji": "ðŸ‡ªðŸ‡ª",
            "unicode": "U+1F1EA U+1F1EA",
            "name": "Estonia",
            "title": "flag for Estonia",
            "dialCode": "+372"
        },
        {
            "code": "ES",
            "emoji": "ðŸ‡ªðŸ‡¸",
            "unicode": "U+1F1EA U+1F1F8",
            "name": "Spain",
            "title": "flag for Spain",
            "dialCode": "+34"
        },
        {
            "code": "EU",
            "emoji": "ðŸ‡ªðŸ‡º",
            "unicode": "U+1F1EA U+1F1FA",
            "name": "European Union",
            "title": "flag for European Union"
        },
        {
            "code": "FI",
            "emoji": "ðŸ‡«ðŸ‡®",
            "unicode": "U+1F1EB U+1F1EE",
            "name": "Finland",
            "title": "flag for Finland",
            "dialCode": "+358"
        },
        {
            "code": "FO",
            "emoji": "ðŸ‡«ðŸ‡´",
            "unicode": "U+1F1EB U+1F1F4",
            "name": "Faroe Islands",
            "title": "flag for Faroe Islands",
            "dialCode": "+298"
        },
        {
            "code": "FR",
            "emoji": "ðŸ‡«ðŸ‡·",
            "unicode": "U+1F1EB U+1F1F7",
            "name": "France",
            "title": "flag for France",
            "dialCode": "+33"
        },
        {
            "code": "GB",
            "emoji": "ðŸ‡¬ðŸ‡§",
            "unicode": "U+1F1EC U+1F1E7",
            "name": "United Kingdom",
            "title": "flag for United Kingdom",
            "dialCode": "+44"
        },
        {
            "code": "GG",
            "emoji": "ðŸ‡¬ðŸ‡¬",
            "unicode": "U+1F1EC U+1F1EC",
            "name": "Guernsey",
            "title": "flag for Guernsey",
            "dialCode": "+44"
        },
        {
            "code": "GI",
            "emoji": "ðŸ‡¬ðŸ‡®",
            "unicode": "U+1F1EC U+1F1EE",
            "name": "Gibraltar",
            "title": "flag for Gibraltar",
            "dialCode": "+350"
        },
        {
            "code": "GR",
            "emoji": "ðŸ‡¬ðŸ‡·",
            "unicode": "U+1F1EC U+1F1F7",
            "name": "Greece",
            "title": "flag for Greece",
            "dialCode": "+30"
        },
        {
            "code": "HR",
            "emoji": "ðŸ‡­ðŸ‡·",
            "unicode": "U+1F1ED U+1F1F7",
            "name": "Croatia",
            "title": "flag for Croatia",
            "dialCode": "+385"
        },
        {
            "code": "HU",
            "emoji": "ðŸ‡­ðŸ‡º",
            "unicode": "U+1F1ED U+1F1FA",
            "name": "Hungary",
            "title": "flag for Hungary",
            "dialCode": "+36"
        },
        {
            "code": "IE",
            "emoji": "ðŸ‡®ðŸ‡ª",
            "unicode": "U+1F1EE U+1F1EA",
            "name": "Ireland",
            "title": "flag for Ireland",
            "dialCode": "+353"
        },
        {
            "code": "IM",
            "emoji": "ðŸ‡®ðŸ‡²",
            "unicode": "U+1F1EE U+1F1F2",
            "name": "Isle of Man",
            "title": "flag for Isle of Man",
            "dialCode": "+44"
        },
        {
            "code": "IS",
            "emoji": "ðŸ‡®ðŸ‡¸",
            "unicode": "U+1F1EE U+1F1F8",
            "name": "Iceland",
            "title": "flag for Iceland",
            "dialCode": "+354"
        },
        {
            "code": "IT",
            "emoji": "ðŸ‡®ðŸ‡¹",
            "unicode": "U+1F1EE U+1F1F9",
            "name": "Italy",
            "title": "flag for Italy",
            "dialCode": "+39"
        },
        {
            "code": "JE",
            "emoji": "ðŸ‡¯ðŸ‡ª",
            "unicode": "U+1F1EF U+1F1EA",
            "name": "Jersey",
            "title": "flag for Jersey",
            "dialCode": "+44"
        },
        {
            "code": "LI",
            "emoji": "ðŸ‡±ðŸ‡®",
            "unicode": "U+1F1F1 U+1F1EE",
            "name": "Liechtenstein",
            "title": "flag for Liechtenstein",
            "dialCode": "+423"
        },
        {
            "code": "LT",
            "emoji": "ðŸ‡±ðŸ‡¹",
            "unicode": "U+1F1F1 U+1F1F9",
            "name": "Lithuania",
            "title": "flag for Lithuania",
            "dialCode": "+370"
        },
        {
            "code": "LU",
            "emoji": "ðŸ‡±ðŸ‡º",
            "unicode": "U+1F1F1 U+1F1FA",
            "name": "Luxembourg",
            "title": "flag for Luxembourg",
            "dialCode": "+352"
        },
        {
            "code": "LV",
            "emoji": "ðŸ‡±ðŸ‡»",
            "unicode": "U+1F1F1 U+1F1FB",
            "name": "Latvia",
            "title": "flag for Latvia",
            "dialCode": "+371"
        },
        {
            "code": "MC",
            "emoji": "ðŸ‡²ðŸ‡¨",
            "unicode": "U+1F1F2 U+1F1E8",
            "name": "Monaco",
            "title": "flag for Monaco",
            "dialCode": "+377"
        },
        {
            "code": "MD",
            "emoji": "ðŸ‡²ðŸ‡©",
            "unicode": "U+1F1F2 U+1F1E9",
            "name": "Moldova",
            "title": "flag for Moldova",
            "dialCode": "+373"
        },
        {
            "code": "ME",
            "emoji": "ðŸ‡²ðŸ‡ª",
            "unicode": "U+1F1F2 U+1F1EA",
            "name": "Montenegro",
            "title": "flag for Montenegro",
            "dialCode": "+382"
        },
        {
            "code": "MK",
            "emoji": "ðŸ‡²ðŸ‡°",
            "unicode": "U+1F1F2 U+1F1F0",
            "name": "North Macedonia",
            "title": "flag for Macedonia",
            "dialCode": "+389"
        },
    
        {
            "code": "MT",
            "emoji": "ðŸ‡²ðŸ‡¹",
            "unicode": "U+1F1F2 U+1F1F9",
            "name": "Malta",
            "title": "flag for Malta",
            "dialCode": "+356"
        },
        {
            "code": "NF",
            "emoji": "ðŸ‡³ðŸ‡«",
            "unicode": "U+1F1F3 U+1F1EB",
            "name": "Norfolk Island",
            "title": "flag for Norfolk Island",
            "dialCode": "+672"
        },
        {
            "code": "NL",
            "emoji": "ðŸ‡³ðŸ‡±",
            "unicode": "U+1F1F3 U+1F1F1",
            "name": "Netherlands",
            "title": "flag for Netherlands",
            "dialCode": "+31"
        },
        {
            "code": "NO",
            "emoji": "ðŸ‡³ðŸ‡´",
            "unicode": "U+1F1F3 U+1F1F4",
            "name": "Norway",
            "title": "flag for Norway",
            "dialCode": "+47"
        },
        
        {
            "code": "PL",
            "emoji": "ðŸ‡µðŸ‡±",
            "unicode": "U+1F1F5 U+1F1F1",
            "name": "Poland",
            "title": "flag for Poland",
            "dialCode": "+48"
        },
        {
            "code": "PT",
            "emoji": "ðŸ‡µðŸ‡¹",
            "unicode": "U+1F1F5 U+1F1F9",
            "name": "Portugal",
            "title": "flag for Portugal",
            "dialCode": "+351"
        },
        {
            "code": "RO",
            "emoji": "ðŸ‡·ðŸ‡´",
            "unicode": "U+1F1F7 U+1F1F4",
            "name": "Romania",
            "title": "flag for Romania",
            "dialCode": "+40"
        },
        {
            "code": "RS",
            "emoji": "ðŸ‡·ðŸ‡¸",
            "unicode": "U+1F1F7 U+1F1F8",
            "name": "Serbia",
            "title": "flag for Serbia",
            "dialCode": "+381"
        },
        {
            "code": "RU",
            "emoji": "ðŸ‡·ðŸ‡º",
            "unicode": "U+1F1F7 U+1F1FA",
            "name": "Russia",
            "title": "flag for Russia",
            "dialCode": "+7"
        },
        {
            "code": "SE",
            "emoji": "ðŸ‡¸ðŸ‡ª",
            "unicode": "U+1F1F8 U+1F1EA",
            "name": "Sweden",
            "title": "flag for Sweden",
            "dialCode": "+46"
        },
        {
            "code": "SI",
            "emoji": "ðŸ‡¸ðŸ‡®",
            "unicode": "U+1F1F8 U+1F1EE",
            "name": "Slovenia",
            "title": "flag for Slovenia",
            "dialCode": "+386"
        },
        {
            "code": "SK",
            "emoji": "ðŸ‡¸ðŸ‡°",
            "unicode": "U+1F1F8 U+1F1F0",
            "name": "Slovakia",
            "title": "flag for Slovakia",
            "dialCode": "+421"
        },
        {
            "code": "SM",
            "emoji": "ðŸ‡¸ðŸ‡²",
            "unicode": "U+1F1F8 U+1F1F2",
            "name": "San Marino",
            "title": "flag for San Marino",
            "dialCode": "+378"
        },
        {
            "code": "TR",
            "emoji": "ðŸ‡¹ðŸ‡·",
            "unicode": "U+1F1F9 U+1F1F7",
            "name": "Turkey",
            "title": "flag for Turkey",
            "dialCode": "+90"
        },
        {
            "code": "UA",
            "emoji": "ðŸ‡ºðŸ‡¦",
            "unicode": "U+1F1FA U+1F1E6",
            "name": "Ukraine",
            "title": "flag for Ukraine",
            "dialCode": "+380"
        },
        {
            "code": "VA",
            "emoji": "ðŸ‡»ðŸ‡¦",
            "unicode": "U+1F1FB U+1F1E6",
            "name": "Vatican City",
            "title": "flag for Vatican City",
            "dialCode": "+379"
        }
    ]
}
